{
  "type": "FeatureCollection",
  "features": [
    {
      "type": "Feature",
      "properties": {
        "norad_id": 31389,
        "name": "FENGYUN 1C DEB",
        "group": "fengyun-1c-debris",
        "lat": 68.21430161486258,
        "lon": 12.067358021650557,
        "alt_km": 665.1257913337986,
        "timestamp": "2025-12-27T19:21:59.031291+00:00",
        "meta_object_name": "FENGYUN 1C DEB",
        "meta_object_id": "1999-025BSV",
        "meta_epoch": "2025-12-26T10:08:41.198784",
        "meta_mean_motion": 14.61620113,
        "meta_eccentricity": 0.0027136,
        "meta_inclination": 99.0411,
        "meta_ra_of_asc_node": 167.0783,
        "meta_arg_of_pericenter": 147.8825,
        "meta_mean_anomaly": 242.6083,
        "meta_ephemeris_type": 0,
        "meta_classification_type": "U",
        "meta_norad_cat_id": 31389,
        "meta_element_set_no": 999,
        "meta_rev_at_epoch": 96697,
        "meta_bstar": 0.0046927,
        "meta_mean_motion_dot": 0.00023477,
        "meta_mean_motion_ddot": 0,
        "tle_line1": "1 31389U 99025BSV 25360.42269906  .00023477  00000+0  46927-2 0  9995",
        "tle_line2": "2 31389  99.0411 167.0783 0027136 147.8825 242.6083 14.61620113966973"
      },
      "geometry": {
        "type": "Point",
        "coordinates": [
          12.067358021650557,
          68.21430161486258
        ]
      }
    },
    {
      "type": "Feature",
      "properties": {
        "norad_id": 31410,
        "name": "FENGYUN 1C DEB",
        "group": "fengyun-1c-debris",
        "lat": 29.770313607912854,
        "lon": 158.85875708146645,
        "alt_km": 807.9728727776755,
        "timestamp": "2025-12-27T19:21:59.031300+00:00",
        "meta_object_name": "FENGYUN 1C DEB",
        "meta_object_id": "1999-025BSW",
        "meta_epoch": "2025-12-26T16:42:06.729408",
        "meta_mean_motion": 14.44856675,
        "meta_eccentricity": 0.01104281,
        "meta_inclination": 98.837,
        "meta_ra_of_asc_node": 162.809,
        "meta_arg_of_pericenter": 244.7739,
        "meta_mean_anomaly": 129.1682,
        "meta_ephemeris_type": 0,
        "meta_classification_type": "U",
        "meta_norad_cat_id": 31410,
        "meta_element_set_no": 999,
        "meta_rev_at_epoch": 97953,
        "meta_bstar": 0.0010626866,
        "meta_mean_motion_dot": 3.933e-05,
        "meta_mean_motion_ddot": 0,
        "tle_line1": "1 31410U 99025BSW 25360.69591122  .00003933  00000+0  10627-2 0  9990",
        "tle_line2": "2 31410  98.8370 162.8090 0110428 244.7739 129.1682 14.44856675979536"
      },
      "geometry": {
        "type": "Point",
        "coordinates": [
          158.85875708146645,
          29.770313607912854
        ]
      }
    },
    {
      "type": "Feature",
      "properties": {
        "norad_id": 31411,
        "name": "FENGYUN 1C DEB",
        "group": "fengyun-1c-debris",
        "lat": -43.17628230279243,
        "lon": 71.20531272842109,
        "alt_km": 823.9930375304002,
        "timestamp": "2025-12-27T19:21:59.031309+00:00",
        "meta_object_name": "FENGYUN 1C DEB",
        "meta_object_id": "1999-025BSX",
        "meta_epoch": "2025-12-27T09:46:22.255392",
        "meta_mean_motion": 14.28027502,
        "meta_eccentricity": 0.0101256,
        "meta_inclination": 98.667,
        "meta_ra_of_asc_node": 62.5804,
        "meta_arg_of_pericenter": 211.7016,
        "meta_mean_anomaly": 209.659,
        "meta_ephemeris_type": 0,
        "meta_classification_type": "U",
        "meta_norad_cat_id": 31411,
        "meta_element_set_no": 999,
        "meta_rev_at_epoch": 94689,
        "meta_bstar": 0.00055241,
        "meta_mean_motion_dot": 1.404e-05,
        "meta_mean_motion_ddot": 0,
        "tle_line1": "1 31411U 99025BSX 25361.40720203  .00001404  00000+0  55241-3 0  9998",
        "tle_line2": "2 31411  98.6670  62.5804 0101256 211.7016 209.6590 14.28027502946894"
      },
      "geometry": {
        "type": "Point",
        "coordinates": [
          71.20531272842109,
          -43.17628230279243
        ]
      }
    },
    {
      "type": "Feature",
      "properties": {
        "norad_id": 31412,
        "name": "FENGYUN 1C DEB",
        "group": "fengyun-1c-debris",
        "lat": 34.05299921378693,
        "lon": -60.87607071191599,
        "alt_km": 868.965063560795,
        "timestamp": "2025-12-27T19:21:59.031318+00:00",
        "meta_object_name": "FENGYUN 1C DEB",
        "meta_object_id": "1999-025BSY",
        "meta_epoch": "2025-12-25T14:24:19.497888",
        "meta_mean_motion": 14.09916522,
        "meta_eccentricity": 0.0082622,
        "meta_inclination": 98.552,
        "meta_ra_of_asc_node": 302.8633,
        "meta_arg_of_pericenter": 299.2185,
        "meta_mean_anomaly": 60.0742,
        "meta_ephemeris_type": 0,
        "meta_classification_type": "U",
        "meta_norad_cat_id": 31412,
        "meta_element_set_no": 999,
        "meta_rev_at_epoch": 61173,
        "meta_bstar": 0.0017789,
        "meta_mean_motion_dot": 3.193e-05,
        "meta_mean_motion_ddot": 0,
        "tle_line1": "1 31412U 99025BSY 25359.60022567  .00003193  00000+0  17789-2 0  9997",
        "tle_line2": "2 31412  98.5520 302.8633 0082622 299.2185  60.0742 14.09916522611739"
      },
      "geometry": {
        "type": "Point",
        "coordinates": [
          -60.87607071191599,
          34.05299921378693
        ]
      }
    },
    {
      "type": "Feature",
      "properties": {
        "norad_id": 31415,
        "name": "FENGYUN 1C DEB",
        "group": "fengyun-1c-debris",
        "lat": -64.63990141440672,
        "lon": -23.519631637663792,
        "alt_km": 802.8158087227612,
        "timestamp": "2025-12-27T19:21:59.031327+00:00",
        "meta_object_name": "FENGYUN 1C DEB",
        "meta_object_id": "1999-025BTB",
        "meta_epoch": "2025-12-14T14:26:42.789696",
        "meta_mean_motion": 14.30617484,
        "meta_eccentricity": 0.00641277,
        "meta_inclination": 99.6387,
        "meta_ra_of_asc_node": 300.8477,
        "meta_arg_of_pericenter": 69.4394,
        "meta_mean_anomaly": 291.365,
        "meta_ephemeris_type": 0,
        "meta_classification_type": "U",
        "meta_norad_cat_id": 31415,
        "meta_element_set_no": 999,
        "meta_rev_at_epoch": 62857,
        "meta_bstar": 0.0013058291,
        "meta_mean_motion_dot": 3.436e-05,
        "meta_mean_motion_ddot": 0,
        "tle_line1": "1 31415U 99025BTB 25348.60188414  .00003436  00000+0  13058-2 0  9997",
        "tle_line2": "2 31415  99.6387 300.8477 0064127  69.4394 291.3650 14.30617484628574"
      },
      "geometry": {
        "type": "Point",
        "coordinates": [
          -23.519631637663792,
          -64.63990141440672
        ]
      }
    },
    {
      "type": "Feature",
      "properties": {
        "norad_id": 31416,
        "name": "FENGYUN 1C DEB",
        "group": "fengyun-1c-debris",
        "lat": 22.688625749473932,
        "lon": -123.27392739638073,
        "alt_km": 693.2417695902323,
        "timestamp": "2025-12-27T19:21:59.031336+00:00",
        "meta_object_name": "FENGYUN 1C DEB",
        "meta_object_id": "1999-025BTC",
        "meta_epoch": "2025-12-26T09:17:43.588320",
        "meta_mean_motion": 14.40699344,
        "meta_eccentricity": 0.0133309,
        "meta_inclination": 99.0496,
        "meta_ra_of_asc_node": 51.4042,
        "meta_arg_of_pericenter": 210.5718,
        "meta_mean_anomaly": 148.7651,
        "meta_ephemeris_type": 0,
        "meta_classification_type": "U",
        "meta_norad_cat_id": 31416,
        "meta_element_set_no": 999,
        "meta_rev_at_epoch": 65716,
        "meta_bstar": 0.00028653,
        "meta_mean_motion_dot": 9.62e-06,
        "meta_mean_motion_ddot": 0,
        "tle_line1": "1 31416U 99025BTC 25360.38731005  .00000962  00000+0  28653-3 0  9996",
        "tle_line2": "2 31416  99.0496  51.4042 0133309 210.5718 148.7651 14.40699344657164"
      },
      "geometry": {
        "type": "Point",
        "coordinates": [
          -123.27392739638073,
          22.688625749473932
        ]
      }
    },
    {
      "type": "Feature",
      "properties": {
        "norad_id": 31420,
        "name": "FENGYUN 1C DEB",
        "group": "fengyun-1c-debris",
        "lat": 10.405857961563093,
        "lon": -103.37597199243623,
        "alt_km": 754.1388974805423,
        "timestamp": "2025-12-27T19:21:59.031345+00:00",
        "meta_object_name": "FENGYUN 1C DEB",
        "meta_object_id": "1999-025BTG",
        "meta_epoch": "2025-12-24T23:03:15.845184",
        "meta_mean_motion": 14.40861261,
        "meta_eccentricity": 0.01349187,
        "meta_inclination": 97.5586,
        "meta_ra_of_asc_node": 255.5032,
        "meta_arg_of_pericenter": 290.3751,
        "meta_mean_anomaly": 83.1637,
        "meta_ephemeris_type": 0,
        "meta_classification_type": "U",
        "meta_norad_cat_id": 31420,
        "meta_element_set_no": 999,
        "meta_rev_at_epoch": 65170,
        "meta_bstar": 0.00064552807,
        "meta_mean_motion_dot": 2.264e-05,
        "meta_mean_motion_ddot": 0,
        "tle_line1": "1 31420U 99025BTG 25358.96060006  .00002264  00000+0  64553-3 0  9994",
        "tle_line2": "2 31420  97.5586 255.5032 0134918 290.3751  83.1637 14.40861261651707"
      },
      "geometry": {
        "type": "Point",
        "coordinates": [
          -103.37597199243623,
          10.405857961563093
        ]
      }
    }
  ]
}